KAITUO 1B               
1 40912U 15049P   18042.44048192  .00000931  00000-0  48375-4 0  9996
2 40912  97.4520  51.5695 0017431  88.9532  49.6062 15.18431286132582
TIANWANG 1C (TW-1C)     
1 40926U 15051B   18042.85922156  .00006414  00000-0  12867-3 0  9998
2 40926  97.2013  85.8542 0011215  26.8554  27.5074 15.46979657133929
TIANWANG 1B (TW-1B)     
1 40927U 15051C   18042.79303816  .00006011  00000-0  12564-3 0  9995
2 40927  97.2098  85.6870 0011578  37.5404  76.1547 15.45797586133833
TIANWANG 1A (TW-1A)     
1 40928U 15051D   18042.41066598  .00002601  00000-0  71678-4 0  9991
2 40928  97.2020  78.8409 0014095  59.8124  65.8827 15.37933555133446
LAPAN-A2 (IO-86)        
1 40931U 15052B   18042.08713618  .00000788  00000-0  20818-4 0  9995
2 40931   5.9983 329.2362 0013112  22.0300 338.0371 14.76564815128334
LQSAT                   
1 40958U 15057A   18042.49767051  .00000027  00000-0  11962-4 0  9990
2 40958  97.9532 118.3286 0018869  24.5919 335.6185 14.73014993126342
CHUBUSAT-2              
1 41338U 16012B   18042.27430627  .00000328  00000-0  18930-4 0  9993
2 41338  31.0045  33.5923 0013899 266.2765  93.6281 14.99916720108919
CHUBUSAT-3              
1 41339U 16012C   18042.30397230  .00000262  00000-0  13626-4 0  9994
2 41339  31.0105  32.1819 0013901 273.0396  86.8649 15.00108140108909
OUFTI-1                 
1 41458U 16025C   18042.40067175  .00000821  00000-0  47538-4 0  9993
2 41458  98.1538  98.4586 0170402 208.7345 150.4411 15.04231862 98523
E-ST@R-II               
1 41459U 16025D   18042.65256687  .00000237  00000-0  17241-4 0  9998
2 41459  98.1528  98.6100 0171181 208.5359 150.6401 15.03985251 98556
AAUSAT 4                
1 41460U 16025E   18042.81056790  .00001886  00000-0  10238-3 0  9990
2 41460  98.1496  99.0980 0163450 204.7835 154.5456 15.05272399 98625
NUSAT 1 (LO-87)         
1 41557U 16033B   18042.83761743  .00001237  00000-0  48001-4 0  9999
2 41557  97.4444 127.2634 0012551 236.9871 123.0163 15.27980241 95011
BEESAT-4                
1 41619U 16040W   18042.29280042  .00001239  00000-0  57735-4 0  9990
2 41619  97.4322 107.1043 0010493 317.4987  42.5436 15.21729925 78947
PRATHAM                 
1 41783U 16059A   18042.14907462  .00000046  00000-0  18268-4 0  9991
2 41783  98.1355 105.6384 0034691 130.1181 230.3070 14.62899397 73532
ALSAT 1N                
1 41789U 16059G   18042.75891921  .00000033  00000-0  15502-4 0  9990
2 41789  98.1354 107.2094 0029819 120.7192 239.6948 14.64125479 73661
NAYIF-1 (EO-88)         
1 42017U 17008BX  18042.44454193  .00001350  00000-0  58639-4 0  9993
2 42017  97.4648 108.1794 0008145 100.6974 259.5181 15.24020632 54914
LILACSAT-1              
1 42725U 98067ME  18042.88194296  .00015623  00000-0  16948-3 0  9990
2 42725  51.6370 274.4374 0005840 125.1392 235.0151 15.63700998 40879
MAX VALIER SAT          
1 42778U 17036P   18042.60455817  .00000841  00000-0  40923-4 0  9991
2 42778  97.4210 104.3102 0013808 144.2411 215.9752 15.21025038 35412
FOX-1B (AO-91)          
1 43017U 17073E   18042.35664580  .00000911  00000-0  77732-4 0  9996
2 43017  97.6995 338.8085 0259592 321.4941  36.7995 14.77894099 12520
FOX-1D (AO-92)          
1 43137U 18004AC  18042.44029121  .00000920  00000-0  42903-4 0  9992
2 43137  97.5513 104.7055 0009835 171.2900 188.8508 15.22416106  4579
